49P/Arend-Rigaux,e,19.0450,118.8322,332.9014,3.568596,0.1462036,0.59950030,301.0061,06/07.0/2017,2000,g 11.3,4.4
# From MPC 95735
50P/Arend,e,19.1350,355.1804,49.2925,4.086405,0.1193141,0.53002438,57.8391,06/07.0/2017,2000,g  9.5,6.0
# From NK 3014
51P-A/Harrington,e,5.4245,83.6906,269.2564,3.712385,0.1377922,0.54217168,91.5608,06/07.0/2017,2000,g 10.0,8.0
# From NK 3013
51P-D/Harrington,e,5.4253,83.6755,269.2952,3.711371,0.1378487,0.54210749,91.7479,06/07.0/2017,2000,g 16.0,8.0
# From MPC 88330
52P/Harrington-Abell,e,10.2320,336.8328,139.6711,3.859925,0.1299678,0.53975465,154.3998,06/07.0/2017,2000,g 13.5,6.0
# From MPC 10028
53P/Van Biesbroeck,e,6.6078,148.9202,134.2100,5.416720,0.0781807,0.55193372,31.5066,06/07.0/2017,2000,g  7.7,4.8
# From NK 2713
54P/de Vico-Swift-NEAT,e,6.0570,358.8533,1.8509,3.797051,0.1332093,0.42461401,7.0035,06/07.0/2017,2000,g 10.0,6.0
# From MPC 31070
55P/Tempel-Tuttle,e,162.3431,235.4044,172.6160,10.33724,0.0296549,0.90684761,208.6704,06/07.0/2017,2000,g 10.0,10.0
# From MPC101100
56P/Slaughter-Burnham,e,8.1479,345.9803,44.2008,5.081878,0.0860335,0.50639551,27.8447,06/07.0/2017,2000,g  8.5,6.0
# From MPC 98565
57P/du Toit-Neujmin-Delporte,e,2.8486,188.8101,115.1461,3.450769,0.1537553,0.49953106,114.8071,06/07.0/2017,2000,g 12.5,6.0
# From MPC 65938
58P/Jackson-Neujmin,e,13.2941,160.0097,200.1446,4.057780,0.1205789,0.66659305,229.4583,06/07.0/2017,2000,g 15.5,6.0
# From MPC 94675
59P/Kearns-Kwee,e,9.3406,312.8422,127.7277,4.494371,0.1034429,0.47531748,311.7075,06/07.0/2017,2000,g  7.0,6.0
# From MPC 94675
60P/Tsuchinshan,e,3.6062,267.6036,216.5531,3.510527,0.1498461,0.53799147,277.2583,06/07.0/2017,2000,g 11.5,6.0
# From MPC 95213
61P/Shajn-Schaldach,e,6.0053,163.0199,221.9518,3.680990,0.1395588,0.42526802,85.6824,06/07.0/2017,2000,g  6.0,10.0
# From MPC 62881
62P/Tsuchinshan,e,9.7080,90.2462,30.3478,3.438341,0.1545897,0.59753591,334.9281,06/07.0/2017,2000,g  8.0,10.0
# From MPC 84320
63P/Wild,e,19.7815,357.9769,169.1749,5.598340,0.0744072,0.65074025,112.9504,06/07.0/2017,2000,g 10.5,6.0
# From MPC 94675
64P/Swift-Gehrels,e,8.9468,300.0068,97.1339,4.455736,0.1047912,0.68720560,306.0393,06/07.0/2017,2000,g  8.5,12.0
# From MPC104795
65P/Gunn,e,9.1848,62.0191,213.5142,3.881188,0.1289012,0.25020392,343.0261,06/07.0/2017,2000,g  5.0,6.0
# From MPC 94675
66P/du Toit,e,18.6780,21.8951,257.2594,6.049399,0.0662423,0.78688249,337.0693,06/07.0/2017,2000,g 12.0,3.6
# From MPC 89011
67P/Churyumov-Gerasimenko,e,7.0817,49.9659,12.7441,3.458584,0.1532345,0.64411958,101.5060,06/07.0/2017,2000,g 11.0,4.0
# From MPC 75716
68P/Klemola,e,11.1753,175.2854,153.3716,4.924989,0.0901771,0.63918925,280.1910,06/07.0/2017,2000,g 10.0,4.0
# From MPC102100
69P/Taylor,e,22.0342,104.8459,343.6321,3.889923,0.1284673,0.41332646,276.5705,06/07.0/2017,2000,g  9.5,12.0
# From MPC 92276
70P/Kojima,e,6.5997,119.2689,1.9451,3.673607,0.1399797,0.45340773,134.4797,06/07.0/2017,2000,g 11.0,6.0
# From MPC104795
71P/Clark,e,9.4459,59.4458,208.9127,3.137108,0.1773821,0.49435281,355.8850,06/07.0/2017,2000,g  9.8,6.0
# From MPC 89011
72P/Denning-Fujikawa,e,10.9204,26.6915,346.7169,4.313287,0.1100251,0.81799695,117.4070,06/07.0/2017,2000,g 17.5,10.0
# From MPC103849
73P/Schwassmann-Wachmann,e,11.2369,69.6618,199.3922,3.091544,0.1813180,0.68553537,14.8962,06/07.0/2017,2000,g 11.5,6.0
# From MPC103849
73P-BT/Schwassmann-Wachmann,e,11.2409,69.6704,199.3767,3.097969,0.1807542,0.68620067,14.8501,06/07.0/2017,2000,g  9.0,4.0
# From MPC102956
74P/Smirnova-Chernykh,e,6.6540,77.0578,87.0709,4.156639,0.1163029,0.14916615,332.8638,06/07.0/2017,2000,g  5.0,6.0
# From MPC102100
76P/West-Kohoutek-Ikemura,e,30.4611,84.1310,0.0714,3.472591,0.1523083,0.53798614,227.2828,06/07.0/2017,2000,g  8.0,12.0
# From MPC 10028
77P/Longmore,e,24.3463,14.8027,196.7531,3.616312,0.1433195,0.35345405,55.7940,06/07.0/2017,2000,g  7.0,8.0
# From MPC102101
78P/Gehrels,e,6.2490,210.5509,192.6979,3.738462,0.1363530,0.46119131,269.3419,06/07.0/2017,2000,g  5.5,8.0
# From MPC 94675
79P/du Toit-Hartley,e,3.1467,280.5362,281.8135,2.944798,0.1950387,0.61922516,269.6351,06/07.0/2017,2000,g 16.0,4.0
# From MPC 89313
80P/Peters-Hartley,e,29.9331,259.8413,339.1747,4.023595,0.1221188,0.59942322,114.7502,06/07.0/2017,2000,g  9.0,8.0
# From MPC 98565
81P/Wild,e,3.2390,136.1239,41.6901,3.448004,0.1539403,0.53821437,49.5262,06/07.0/2017,2000,g  7.0,6.0
# From MPC 75717
82P/Gehrels,e,1.1278,239.3042,227.1926,4.143574,0.1168534,0.12295304,314.8371,06/07.0/2017,2000,g  5.0,8.0
# From MPC 69911
84P/Giclas,e,7.2858,111.1594,277.0319,3.609449,0.1437284,0.50511633,202.2658,06/07.0/2017,2000,g  9.5,8.0
# From MPC 79347
86P/Wild,e,15.4739,72.3857,179.1917,3.605529,0.1439629,0.37238923,114.4966,06/07.0/2017,2000,g 11.0,6.0
# From MPC 87068
87P/Bus,e,2.6023,181.8826,24.7967,3.440712,0.1544300,0.38949982,195.2739,06/07.0/2017,2000,g  7.2,10.0
# From MPC 95735
88P/Howell,e,4.3837,56.6992,235.8597,3.107503,0.1799230,0.56338436,142.6183,06/07.0/2017,2000,g 11.0,6.0
# From MPC 10028
89P/Russell,e,12.0766,41.4433,250.1608,3.751972,0.1356172,0.40817643,23.6351,06/07.0/2017,2000,g 11.5,6.0
# From MPC102101
90P/Gehrels,e,9.6352,13.2515,29.2655,6.068189,0.0659349,0.50974432,359.1911,06/07.0/2017,2000,g  8.5,6.0
# From MPC 84320
91P/Russell,e,14.0880,247.8277,354.5662,3.895575,0.1281878,0.33022577,199.6567,06/07.0/2017,2000,g  7.5,6.0
# From MPC 88331
92P/Sanguin,e,19.4449,181.4558,163.7426,5.352737,0.0795867,0.65915089,65.9757,06/07.0/2017,2000,g 12.0,6.0
# From NK 2707
93P/Lovas,e,12.2046,339.6250,74.8971,4.388312,0.1072156,0.61257594,10.4593,06/07.0/2017,2000,g  9.5,6.0
# From MPC 84320
94P/Russell,e,6.1870,70.8645,92.7244,3.510937,0.1498199,0.36497231,33.3365,06/07.0/2017,2000,g  9.0,6.0
# From MPC 75717
95P/Chiron,e,6.9496,209.2013,339.6512,13.64582,0.0195526,0.38242839,151.8804,06/07.0/2017,2000,g  6.3,2.0
# From NK 2733
96P/Machholz,e,58.1383,94.2552,14.7931,3.034875,0.1864201,0.95915984,333.3487,06/07.0/2017,2000,g 13.0,4.8
# From MPC 77020
97P/Metcalf-Brewington,e,17.8596,185.1683,228.2126,4.799863,0.0937262,0.45700953,198.8518,06/07.0/2017,2000,g  5.5,6.0
# From MPC 83523
98P/Takamizawa,e,10.5514,114.7110,157.8097,3.803489,0.1328712,0.56141360,186.1593,06/07.0/2017,2000,g  9.0,8.0
# From MPC 75718
99P/Kowal,e,4.3391,28.1816,174.4731,6.125492,0.0650119,0.23103357,245.1657,06/07.0/2017,2000,g  4.5,6.0
# From MPC 84321
100P/Hartley,e,25.5895,37.7214,181.9044,3.428519,0.1552545,0.41343554,66.8981,06/07.0/2017,2000,g  9.0,8.0
# From MPC 75718
101P/Chernykh,e,5.0506,116.2332,277.6490,5.793882,0.0706724,0.59481507,292.8604,06/07.0/2017,2000,g 10.0,4.8
# From MPC 86232
102P/Shoemaker,e,25.9726,339.6631,20.6884,3.803247,0.1328839,0.45945729,183.8507,06/07.0/2017,2000,g  6.5,8.0
# From NK 2714
103P/Hartley,e,13.5938,219.7242,181.3001,3.477307,0.1519986,0.69344733,7.2204,06/07.0/2017,2000,g  8.5,8.0
# From MPC 10028
104P/Kowal,e,10.2797,235.3697,200.7120,3.263659,0.1671656,0.63933006,72.8088,06/07.0/2017,2000,g 16.0,4.0
# From MPC 94676
105P/Singer Brewster,e,9.1766,192.4328,46.5333,3.465918,0.1527484,0.41016556,294.3934,06/07.0/2017,2000,g 11.5,6.0
# From MPC 92276
106P/Schuster,e,20.4293,50.0197,355.9202,3.738972,0.1363251,0.59333624,143.2666,06/07.0/2017,2000,g 14.0,4.8
# From MPC 94676
107P/Wilson-Harrington,e,2.7942,266.8836,95.2758,2.629184,0.2311919,0.63077271,278.9726,06/07.0/2017,2000,g 16.0,2.0
# From MPC 89313
108P/Ciffreo,e,13.3502,52.8630,358.2281,3.721118,0.1373074,0.55105566,131.5909,06/07.0/2017,2000,g  8.0,12.0
# From ICA 105, 420
109P/Swift-Tuttle,e,113.2388,139.6388,153.0124,26.09233,0.0073949,0.96377020,66.1989,06/07.0/2017,2000,g  4.5,6.0
# From MPC 91618
110P/Hartley,e,11.6899,287.5517,167.4621,3.606484,0.1439057,0.31574101,129.9906,06/07.0/2017,2000,g  1.0,12.0
# From MPC 75718
111P/Helin-Roman-Crockett,e,4.2281,89.7681,1.8076,4.139723,0.1170165,0.10530860,187.3420,06/07.0/2017,2000,g  5.0,8.0
# From MPC 69910
112P/Urata-Niijima,e,24.2045,31.9094,21.3440,3.529349,0.1486491,0.58819848,214.7588,06/07.0/2017,2000,g 14.0,6.0
# From MPC 92984
113P/Spitaler,e,5.7388,14.3016,50.1698,3.689230,0.1390914,0.43138352,107.1068,06/07.0/2017,2000,g 13.5,4.0
# From MPC 82722
114P/Wiseman-Skiff,e,18.2749,271.0636,172.8592,3.544625,0.1476891,0.55446335,219.4906,06/07.0/2017,2000,g 11.5,6.0
# From MPC 76027
115P/Maury,e,11.6721,176.0448,121.0424,4.271661,0.1116372,0.51795891,231.6585,06/07.0/2017,2000,g 10.5,6.0
# From MPC102101
116P/Wild,e,3.6082,20.9944,173.3460,3.484568,0.1515238,0.37215257,77.6431,06/07.0/2017,2000,g  2.5,10.0
# From MPC 95735
117P/Helin-Roman-Alu,e,8.7012,58.8749,222.4994,4.092822,0.1190337,0.25452838,139.0397,06/07.0/2017,2000,g  2.5,8.0
# From MPC 95735
118P/Shoemaker-Levy,e,8.5098,151.7076,302.4302,3.466486,0.1527108,0.42872184,54.1779,06/07.0/2017,2000,g 12.0,4.0
# From MPC 84628
119P/Parker-Hartley,e,5.3714,241.1082,182.1918,4.243653,0.1127442,0.30835952,130.4915,06/07.0/2017,2000,g  3.5,8.0
# From MPC 80901
120P/Mueller,e,8.8364,3.7120,28.7574,4.068568,0.1200996,0.35739110,186.7729,06/07.0/2017,2000,g 12.0,4.0
# From MPC 10028
121P/Shoemaker-Holt,e,20.1581,94.1420,11.4741,4.592861,0.1001334,0.18314440,137.8302,06/07.0/2017,2000,g  6.5,8.0
# From MPC 75718
122P/de Vico,e,84.8182,79.5349,13.0474,17.66039,0.0132802,0.96255871,105.0582,06/07.0/2017,2000,g  7.5,5.2
# From MPC102101
123P/West-Hartley,e,15.3596,46.5015,102.9846,3.859837,0.1299722,0.44902939,280.9827,06/07.0/2017,2000,g  4.0,10.0
# From MPC 87068
124P/Mrkos,e,31.5291,0.4021,183.8046,3.318799,0.1630169,0.50391626,188.1155,06/07.0/2017,2000,g 13.5,2.8
# From MPC 94676
125P/Spacewatch,e,9.9889,153.1841,87.1775,3.124235,0.1784796,0.51333564,280.2187,06/07.0/2017,2000,g 13.0,6.0
# From MPC 66205
126P/IRAS,e,45.7778,357.8189,356.5573,5.641987,0.0735455,0.69510487,196.4885,06/07.0/2017,2000,g  6.0,8.0
# From MPC 84321
127P/Holt-Olmstead,e,14.3027,13.6490,6.6708,3.448681,0.1538950,0.36038995,68.6878,06/07.0/2017,2000,g 11.0,6.0
# From MPC 75719
